{
  "type": "FeatureCollection",
  "features": [
    {
      "type": "Feature",
      "properties": {
        "norad_id": 28890,
        "name": "BEIJING 1",
        "group": "dmc",
        "lat": -38.513678234408765,
        "lon": 124.61135725476325,
        "alt_km": 699.4858414452001,
        "timestamp": "2025-12-16T10:53:45.129521+00:00",
        "meta_object_name": "BEIJING 1",
        "meta_object_id": "2005-043A",
        "meta_epoch": "2025-12-15T23:35:13.177824",
        "meta_mean_motion": 14.63369741,
        "meta_eccentricity": 0.00154838,
        "meta_inclination": 98.2647,
        "meta_ra_of_asc_node": 117.4967,
        "meta_arg_of_pericenter": 131.5746,
        "meta_mean_anomaly": 228.6786,
        "meta_ephemeris_type": 0,
        "meta_classification_type": "U",
        "meta_norad_cat_id": 28890,
        "meta_element_set_no": 999,
        "meta_rev_at_epoch": 7385,
        "meta_bstar": 7.951971e-05,
        "meta_mean_motion_dot": 3.63e-06,
        "meta_mean_motion_ddot": 0,
        "tle_line1": "1 28890U 05043A   25349.98279141  .00000363  00000+0  79520-4 0  9991",
        "tle_line2": "2 28890  98.2647 117.4967 0015483 131.5746 228.6786 14.63369741 73854"
      },
      "geometry": {
        "type": "Point",
        "coordinates": [
          124.61135725476325,
          -38.513678234408765
        ]
      }
    },
    {
      "type": "Feature",
      "properties": {
        "norad_id": 33320,
        "name": "HUANJING 1A (HJ-1A)",
        "group": "dmc",
        "lat": -73.79305665846367,
        "lon": 131.03787094314865,
        "alt_km": 634.2949414373252,
        "timestamp": "2025-12-16T10:53:45.129545+00:00",
        "meta_object_name": "HUANJING 1A (HJ-1A)",
        "meta_object_id": "2008-041A",
        "meta_epoch": "2025-12-16T00:01:59.060928",
        "meta_mean_motion": 14.83407664,
        "meta_eccentricity": 0.00199387,
        "meta_inclination": 97.6541,
        "meta_ra_of_asc_node": 338.164,
        "meta_arg_of_pericenter": 24.1736,
        "meta_mean_anomaly": 336.041,
        "meta_ephemeris_type": 0,
        "meta_classification_type": "U",
        "meta_norad_cat_id": 33320,
        "meta_element_set_no": 999,
        "meta_rev_at_epoch": 93124,
        "meta_bstar": 0.00022448809,
        "meta_mean_motion_dot": 1.797e-05,
        "meta_mean_motion_ddot": 0,
        "tle_line1": "1 33320U 08041A   25350.00137802  .00001797  00000+0  22449-3 0  9997",
        "tle_line2": "2 33320  97.6541 338.1640 0019938  24.1736 336.0410 14.83407664931242"
      },
      "geometry": {
        "type": "Point",
        "coordinates": [
          131.03787094314865,
          -73.79305665846367
        ]
      }
    },
    {
      "type": "Feature",
      "properties": {
        "norad_id": 33321,
        "name": "HUANJING 1B (HJ-1B)",
        "group": "dmc",
        "lat": 69.01111124597433,
        "lon": -177.2344358989803,
        "alt_km": 594.9645372270343,
        "timestamp": "2025-12-16T10:53:45.129560+00:00",
        "meta_object_name": "HUANJING 1B (HJ-1B)",
        "meta_object_id": "2008-041B",
        "meta_epoch": "2025-12-15T23:04:12.243648",
        "meta_mean_motion": 14.82832926,
        "meta_eccentricity": 0.00381785,
        "meta_inclination": 97.6401,
        "meta_ra_of_asc_node": 341.8142,
        "meta_arg_of_pericenter": 65.5438,
        "meta_mean_anomaly": 294.9752,
        "meta_ephemeris_type": 0,
        "meta_classification_type": "U",
        "meta_norad_cat_id": 33321,
        "meta_element_set_no": 999,
        "meta_rev_at_epoch": 93125,
        "meta_bstar": 0.00018464245,
        "meta_mean_motion_dot": 1.462e-05,
        "meta_mean_motion_ddot": 0,
        "tle_line1": "1 33321U 08041B   25349.96125282  .00001462  00000+0  18464-3 0  9991",
        "tle_line2": "2 33321  97.6401 341.8142 0038178  65.5438 294.9752 14.82832926931255"
      },
      "geometry": {
        "type": "Point",
        "coordinates": [
          -177.2344358989803,
          69.01111124597433
        ]
      }
    },
    {
      "type": "Feature",
      "properties": {
        "norad_id": 33446,
        "name": "YAOGAN-4",
        "group": "dmc",
        "lat": 18.959424175512197,
        "lon": -82.22380762277915,
        "alt_km": 617.6878635853163,
        "timestamp": "2025-12-16T10:53:45.129572+00:00",
        "meta_object_name": "YAOGAN-4",
        "meta_object_id": "2008-061A",
        "meta_epoch": "2025-12-15T18:36:47.735136",
        "meta_mean_motion": 14.82692757,
        "meta_eccentricity": 0.00133523,
        "meta_inclination": 97.9181,
        "meta_ra_of_asc_node": 279.845,
        "meta_arg_of_pericenter": 312.7719,
        "meta_mean_anomaly": 47.237,
        "meta_ephemeris_type": 0,
        "meta_classification_type": "U",
        "meta_norad_cat_id": 33446,
        "meta_element_set_no": 999,
        "meta_rev_at_epoch": 91848,
        "meta_bstar": 0.00015255077,
        "meta_mean_motion_dot": 1.178e-05,
        "meta_mean_motion_ddot": 0,
        "tle_line1": "1 33446U 08061A   25349.77555249  .00001178  00000+0  15255-3 0  9999",
        "tle_line2": "2 33446  97.9181 279.8450 0013352 312.7719  47.2370 14.82692757918480"
      },
      "geometry": {
        "type": "Point",
        "coordinates": [
          -82.22380762277915,
          18.959424175512197
        ]
      }
    },
    {
      "type": "Feature",
      "properties": {
        "norad_id": 35681,
        "name": "DEIMOS-1",
        "group": "dmc",
        "lat": 45.013072855079606,
        "lon": 143.08962229120274,
        "alt_km": 639.7492068880683,
        "timestamp": "2025-12-16T10:53:45.129584+00:00",
        "meta_object_name": "DEIMOS-1",
        "meta_object_id": "2009-041A",
        "meta_epoch": "2025-12-15T23:17:35.162304",
        "meta_mean_motion": 14.74960608,
        "meta_eccentricity": 0.00026843,
        "meta_inclination": 97.7144,
        "meta_ra_of_asc_node": 150.423,
        "meta_arg_of_pericenter": 73.7443,
        "meta_mean_anomaly": 286.4062,
        "meta_ephemeris_type": 0,
        "meta_classification_type": "U",
        "meta_norad_cat_id": 35681,
        "meta_element_set_no": 999,
        "meta_rev_at_epoch": 87987,
        "meta_bstar": 0.00017741766,
        "meta_mean_motion_dot": 1.145e-05,
        "meta_mean_motion_ddot": 0,
        "tle_line1": "1 35681U 09041A   25349.97054586  .00001145  00000+0  17742-3 0  9998",
        "tle_line2": "2 35681  97.7144 150.4230 0002684  73.7443 286.4062 14.74960608879872"
      },
      "geometry": {
        "type": "Point",
        "coordinates": [
          143.08962229120274,
          45.013072855079606
        ]
      }
    },
    {
      "type": "Feature",
      "properties": {
        "norad_id": 35683,
        "name": "UK-DMC 2",
        "group": "dmc",
        "lat": 68.24622183639067,
        "lon": 105.00903405378386,
        "alt_km": 635.5655133314076,
        "timestamp": "2025-12-16T10:53:45.129595+00:00",
        "meta_object_name": "UK-DMC 2",
        "meta_object_id": "2009-041C",
        "meta_epoch": "2025-12-15T23:11:22.400736",
        "meta_mean_motion": 14.75631591,
        "meta_eccentricity": 0.00014731,
        "meta_inclination": 97.8554,
        "meta_ra_of_asc_node": 124.7772,
        "meta_arg_of_pericenter": 95.3741,
        "meta_mean_anomaly": 264.7637,
        "meta_ephemeris_type": 0,
        "meta_classification_type": "U",
        "meta_norad_cat_id": 35683,
        "meta_element_set_no": 999,
        "meta_rev_at_epoch": 87954,
        "meta_bstar": 0.00019991378,
        "meta_mean_motion_dot": 1.315e-05,
        "meta_mean_motion_ddot": 0,
        "tle_line1": "1 35683U 09041C   25349.96623149  .00001315  00000+0  19991-3 0  9993",
        "tle_line2": "2 35683  97.8554 124.7772 0001473  95.3741 264.7637 14.75631591879549"
      },
      "geometry": {
        "type": "Point",
        "coordinates": [
          105.00903405378386,
          68.24622183639067
        ]
      }
    },
    {
      "type": "Feature",
      "properties": {
        "norad_id": 40715,
        "name": "DMC3-FM1",
        "group": "dmc",
        "lat": -68.35403451292997,
        "lon": 17.6614389439905,
        "alt_km": 617.8118903869727,
        "timestamp": "2025-12-16T10:53:45.129606+00:00",
        "meta_object_name": "DMC3-FM1",
        "meta_object_id": "2015-032A",
        "meta_epoch": "2025-12-15T22:27:29.703744",
        "meta_mean_motion": 14.85449142,
        "meta_eccentricity": 0.00044079,
        "meta_inclination": 97.6694,
        "meta_ra_of_asc_node": 217.0117,
        "meta_arg_of_pericenter": 309.3252,
        "meta_mean_anomaly": 50.7573,
        "meta_ephemeris_type": 0,
        "meta_classification_type": "U",
        "meta_norad_cat_id": 40715,
        "meta_element_set_no": 999,
        "meta_rev_at_epoch": 56270,
        "meta_bstar": 0.00016495272,
        "meta_mean_motion_dot": 1.371e-05,
        "meta_mean_motion_ddot": 0,
        "tle_line1": "1 40715U 15032A   25349.93576046  .00001371  00000+0  16495-3 0  9990",
        "tle_line2": "2 40715  97.6694 217.0117 0004407 309.3252  50.7573 14.85449142562707"
      },
      "geometry": {
        "type": "Point",
        "coordinates": [
          17.6614389439905,
          -68.35403451292997
        ]
      }
    },
    {
      "type": "Feature",
      "properties": {
        "norad_id": 40716,
        "name": "DMC3-FM2",
        "group": "dmc",
        "lat": 49.811482925218804,
        "lon": 48.143898357542724,
        "alt_km": 611.1846840625885,
        "timestamp": "2025-12-16T10:53:45.129617+00:00",
        "meta_object_name": "DMC3-FM2",
        "meta_object_id": "2015-032B",
        "meta_epoch": "2025-12-15T22:59:52.933056",
        "meta_mean_motion": 14.85450038,
        "meta_eccentricity": 0.00050614,
        "meta_inclination": 97.6752,
        "meta_ra_of_asc_node": 218.4797,
        "meta_arg_of_pericenter": 315.3506,
        "meta_mean_anomaly": 44.7301,
        "meta_ephemeris_type": 0,
        "meta_classification_type": "U",
        "meta_norad_cat_id": 40716,
        "meta_element_set_no": 999,
        "meta_rev_at_epoch": 56270,
        "meta_bstar": 0.00011415538,
        "meta_mean_motion_dot": 9.33e-06,
        "meta_mean_motion_ddot": 0,
        "tle_line1": "1 40716U 15032B   25349.95825154  .00000933  00000+0  11416-3 0  9991",
        "tle_line2": "2 40716  97.6752 218.4797 0005061 315.3506  44.7301 14.85450038562706"
      },
      "geometry": {
        "type": "Point",
        "coordinates": [
          48.143898357542724,
          49.811482925218804
        ]
      }
    },
    {
      "type": "Feature",
      "properties": {
        "norad_id": 40717,
        "name": "DMC3-FM3",
        "group": "dmc",
        "lat": 13.563781373426265,
        "lon": -141.27272827095774,
        "alt_km": 611.7032008264023,
        "timestamp": "2025-12-16T10:53:45.129641+00:00",
        "meta_object_name": "DMC3-FM3",
        "meta_object_id": "2015-032C",
        "meta_epoch": "2025-12-15T21:54:03.578688",
        "meta_mean_motion": 14.85434575,
        "meta_eccentricity": 0.00044743,
        "meta_inclination": 97.6805,
        "meta_ra_of_asc_node": 220.0707,
        "meta_arg_of_pericenter": 316.8687,
        "meta_mean_anomaly": 43.2177,
        "meta_ephemeris_type": 0,
        "meta_classification_type": "U",
        "meta_norad_cat_id": 40717,
        "meta_element_set_no": 999,
        "meta_rev_at_epoch": 56270,
        "meta_bstar": 4.7562493e-05,
        "meta_mean_motion_dot": 3.58e-06,
        "meta_mean_motion_ddot": 0,
        "tle_line1": "1 40717U 15032C   25349.91254142  .00000358  00000+0  47562-4 0  9994",
        "tle_line2": "2 40717  97.6805 220.0707 0004474 316.8687  43.2177 14.85434575562702"
      },
      "geometry": {
        "type": "Point",
        "coordinates": [
          -141.27272827095774,
          13.563781373426265
        ]
      }
    }
  ]
}